NOAA 15                 
1 25338U 98030A   23014.52320601  .00000263  00000+0  12805-3 0  9999
2 25338  98.6240  46.0780 0011073  46.6106 313.5995 14.26222231283353
NOAA 18                 
1 28654U 05018A   23014.46672287  .00000300  00000+0  18524-3 0  9996
2 28654  98.9278  89.5093 0015204  95.5002 264.7905 14.12839335909861
NOAA 19                 
1 33591U 09005A   23014.56308097  .00000242  00000+0  15529-3 0  9995
2 33591  99.1234  57.8742 0013193 317.8320  42.1835 14.12667068718252
METOP-B                 
1 38771U 12049A   23014.52503538  .00000208  00000+0  11488-3 0  9997
2 38771  98.7026  76.3039 0001578 112.3824  24.4953 14.21496798535719
SARAL                   
1 39086U 13009A   23014.04785037  .00000213  00000+0  95533-4 0  9997
2 39086  98.5451 201.5904 0001611  53.2686 306.8645 14.32065654516628
METOP-C                 
1 43689U 18087A   23014.46440390  .00000212  00000+0  11665-3 0  9990
2 43689  98.7071  76.3031 0003949 136.1638 223.9853 14.21502573217289
ANGELS                  
1 44876U 19092D   23014.07314150  .00006898  00000+0  32987-3 0  9993
2 44876  97.4733 200.0408 0011587 352.3690   7.7366 15.19254426170206
GAZELLE                 
1 54023U 22127A   23013.95200249 -.00000043  00000+0  00000+0 0  9994
2 54023  98.3172  15.7520 0013715   6.6937 353.4469 14.41687119 14151
EOS-6 (OCEANSAT-3)      
1 54361U 22158A   23014.29285257  .00000548  00000+0  16264-3 0  9995
2 54361  98.3529 113.3770 0001565  97.0509 263.0884 14.47004857  7082
